     3.04           N: GNSS NAV DATA    M: MIXED            RINEX VERSION / TYPE
ssrcrin-15.6.1x                         20250101 054500 UTC PGM / RUN BY / DATE 
    18                                                      LEAP SECONDS        
                                                            END OF HEADER       
S23 2025 01 01 05 45 04 0.000000000000E+00 0.000000000000E+00 2.799180000000E+05
     3.866796400000E+04 0.000000000000E+00 0.000000000000E+00 6.300000000000E+01
     1.681330800000E+04 0.000000000000E+00 0.000000000000E+00 3.276700000000E+04
     0.000000000000E+00 0.000000000000E+00 0.000000000000E+00 1.510000000000E+02
S36 2025 01 01 05 44 48 0.000000000000E+00 0.000000000000E+00 2.799620000000E+05
     4.200368800000E+04 0.000000000000E+00 0.000000000000E+00 6.300000000000E+01
     3.674846960000E+03 0.000000000000E+00 0.000000000000E+00 3.276700000000E+04
     0.000000000000E+00 0.000000000000E+00 0.000000000000E+00 3.200000000000E+01
S36 2025 01 01 05 47 12 0.000000000000E+00 0.000000000000E+00 2.800380000000E+05
     4.200368800000E+04 0.000000000000E+00 0.000000000000E+00 6.300000000000E+01
     3.674846960000E+03 0.000000000000E+00 0.000000000000E+00 3.276700000000E+04
     0.000000000000E+00 0.000000000000E+00 0.000000000000E+00 3.300000000000E+01
S23 2025 01 01 05 47 12 0.000000000000E+00 0.000000000000E+00 2.800450000000E+05
     3.866796400000E+04 0.000000000000E+00 0.000000000000E+00 6.300000000000E+01
     1.681330800000E+04 0.000000000000E+00 0.000000000000E+00 3.276700000000E+04
     0.000000000000E+00 0.000000000000E+00 0.000000000000E+00 1.520000000000E+02
E03 2025 01 01 05 30 00-1.636767410673E-04-2.472688720445E-12 0.000000000000E+00
     8.400000000000E+01-1.541250000000E+02 2.834046620846E-09-1.383783369046E-01
    -7.085502147675E-06 2.400045050308E-04 1.113116741180E-05 5.440615060806E+03
     2.790000000000E+05 4.842877388000E-08 3.133500817744E-01 1.676380634308E-08
     9.635792301541E-01 1.018750000000E+02 9.315971755046E-01-5.239146802922E-09
     2.628680923683E-10 5.170000000000E+02 2.347000000000E+03
     3.120000000000E+00 0.000000000000E+00 6.984919309616E-10 1.629814505577E-09
     2.801150000000E+05
S23 2025 01 01 05 49 20 0.000000000000E+00 0.000000000000E+00 2.801720000000E+05
     3.866796400000E+04 0.000000000000E+00 0.000000000000E+00 6.300000000000E+01
     1.681330800000E+04 0.000000000000E+00 0.000000000000E+00 3.276700000000E+04
     0.000000000000E+00 0.000000000000E+00 0.000000000000E+00 1.530000000000E+02
S36 2025 01 01 05 49 36 0.000000000000E+00 0.000000000000E+00 2.801820000000E+05
     4.200368800000E+04 0.000000000000E+00 0.000000000000E+00 6.300000000000E+01
     3.674846960000E+03 0.000000000000E+00 0.000000000000E+00 3.276700000000E+04
     0.000000000000E+00 0.000000000000E+00 0.000000000000E+00 3.400000000000E+01
E03 2025 01 01 05 30 00-1.636779634282E-04-2.472688720445E-12 0.000000000000E+00
     8.400000000000E+01-1.541250000000E+02 2.834046620846E-09-1.383783369046E-01
    -7.085502147675E-06 2.400045050308E-04 1.113116741180E-05 5.440615060806E+03
     2.790000000000E+05 4.842877388000E-08 3.133500817744E-01 1.676380634308E-08
     9.635792301541E-01 1.018750000000E+02 9.315971755046E-01-5.239146802922E-09
     2.628680923683E-10 2.580000000000E+02 2.347000000000E+03
     3.120000000000E+00 0.000000000000E+00 6.984919309616E-10 0.000000000000E+00
     2.801900000000E+05
E05 2025 01 01 05 40 00 4.815214138944E-03 3.311129148642E-12 0.000000000000E+00
     8.500000000000E+01-1.700625000000E+02 2.674039955926E-09-1.838360500305E+00
    -7.864087820053E-06 2.319610211998E-05 1.196749508381E-05 5.440619985580E+03
     2.796000000000E+05-2.048909664154E-08 3.133525146071E-01 4.097819328308E-08
     9.635934160707E-01 8.465625000000E+01-2.796898086123E+00-5.177358514906E-09
     2.950122884460E-10 5.170000000000E+02 2.347000000000E+03
     3.120000000000E+00 0.000000000000E+00-1.164153218269E-09 0.000000000000E+00
     2.802650000000E+05
E03 2025 01 01 05 40 00-1.636783708818E-04-2.486899575160E-12 0.000000000000E+00
     8.500000000000E+01-1.540937500000E+02 2.837261040454E-09-6.388770840235E-02
    -7.081776857376E-06 2.399756340310E-04 1.112557947636E-05 5.440614986420E+03
     2.796000000000E+05 5.029141902924E-08 3.133469160197E-01 2.235174179077E-08
     9.635793662055E-01 1.022187500000E+02 9.314916318168E-01-5.239861118391E-09
     2.675111429129E-10 5.170000000000E+02 2.347000000000E+03
     3.120000000000E+00 0.000000000000E+00 6.984919309616E-10 1.629814505577E-09
     2.802650000000E+05
E31 2025 01 01 05 40 00-4.880985943601E-05-1.506350599811E-12 0.000000000000E+00
     8.500000000000E+01-1.321875000000E+01 3.262635901881E-09 9.599300717063E-01
    -5.532056093216E-07 1.758835278451E-04 6.986781954765E-06 5.440603067398E+03
     2.796000000000E+05-2.421438694000E-08 2.413685627329E+00-4.097819328308E-08
     9.642312015399E-01 1.935937500000E+02 1.616487787605E-01-5.389867366753E-09
    -6.275261389825E-10 5.170000000000E+02 2.347000000000E+03
     3.120000000000E+00 0.000000000000E+00 1.629814505577E-09 2.793967723846E-09
     2.802650000000E+05
S23 2025 01 01 05 51 28 0.000000000000E+00 0.000000000000E+00 2.803010000000E+05
     3.866796400000E+04 0.000000000000E+00 0.000000000000E+00 6.300000000000E+01
     1.681330800000E+04 0.000000000000E+00 0.000000000000E+00 3.276700000000E+04
     0.000000000000E+00 0.000000000000E+00 0.000000000000E+00 1.540000000000E+02
S36 2025 01 01 05 52 00 0.000000000000E+00 0.000000000000E+00 2.803290000000E+05
     4.200368800000E+04 0.000000000000E+00 0.000000000000E+00 6.300000000000E+01
     3.674846960000E+03 0.000000000000E+00 0.000000000000E+00 3.276700000000E+04
     0.000000000000E+00 0.000000000000E+00 0.000000000000E+00 3.500000000000E+01
E05 2025 01 01 05 40 00 4.815212800168E-03 3.311129148642E-12 0.000000000000E+00
     8.500000000000E+01-1.700625000000E+02 2.674039955926E-09-1.838360500305E+00
    -7.864087820053E-06 2.319610211998E-05 1.196749508381E-05 5.440619985580E+03
     2.796000000000E+05-2.048909664154E-08 3.133525146071E-01 4.097819328308E-08
     9.635934160707E-01 8.465625000000E+01-2.796898086123E+00-5.177358514906E-09
     2.950122884460E-10 2.580000000000E+02 2.347000000000E+03
     3.120000000000E+00 0.000000000000E+00-1.164153218269E-09 0.000000000000E+00
     2.803400000000E+05
E03 2025 01 01 05 40 00-1.636795350350E-04-2.472688720445E-12 0.000000000000E+00
     8.500000000000E+01-1.540937500000E+02 2.837261040454E-09-6.388770840235E-02
    -7.081776857376E-06 2.399756340310E-04 1.112557947636E-05 5.440614986420E+03
     2.796000000000E+05 5.029141902924E-08 3.133469160197E-01 2.235174179077E-08
     9.635793662055E-01 1.022187500000E+02 9.314916318168E-01-5.239861118391E-09
     2.675111429129E-10 2.580000000000E+02 2.347000000000E+03
     3.120000000000E+00 0.000000000000E+00 6.984919309616E-10 0.000000000000E+00
     2.803400000000E+05
E31 2025 01 01 05 40 00-4.881125641987E-05-1.492139745096E-12 0.000000000000E+00
     8.500000000000E+01-1.321875000000E+01 3.262635901881E-09 9.599300717063E-01
    -5.532056093216E-07 1.758835278451E-04 6.986781954765E-06 5.440603067398E+03
     2.796000000000E+05-2.421438694000E-08 2.413685627329E+00-4.097819328308E-08
     9.642312015399E-01 1.935937500000E+02 1.616487787605E-01-5.389867366753E-09
    -6.275261389825E-10 2.580000000000E+02 2.347000000000E+03
     3.120000000000E+00 0.000000000000E+00 1.629814505577E-09 0.000000000000E+00
     2.803400000000E+05
S23 2025 01 01 05 53 36 0.000000000000E+00 0.000000000000E+00 2.804280000000E+05
     3.866796400000E+04 0.000000000000E+00 0.000000000000E+00 6.300000000000E+01
     1.681330800000E+04 0.000000000000E+00 0.000000000000E+00 3.276700000000E+04
     0.000000000000E+00 0.000000000000E+00 0.000000000000E+00 1.550000000000E+02
S36 2025 01 01 05 54 40 0.000000000000E+00 0.000000000000E+00 2.804810000000E+05
     4.200368800000E+04 0.000000000000E+00 0.000000000000E+00 6.300000000000E+01
     3.674846960000E+03 0.000000000000E+00 0.000000000000E+00 3.276700000000E+04
     0.000000000000E+00 0.000000000000E+00 0.000000000000E+00 3.600000000000E+01
E16 2025 01 01 05 40 00-1.275993417948E-05-2.074784788419E-12 0.000000000000E+00
     8.500000000000E+01-1.565625000000E+01 3.244778015171E-09-2.313172489148E+00
    -6.761401891708E-07 2.367716515437E-04 6.759539246559E-06 5.440606275558E+03
     2.796000000000E+05 4.842877388000E-08 2.409632680085E+00 1.862645149231E-08
     9.661574316265E-01 1.975000000000E+02 2.252029750490E+00-5.410939673071E-09
    -5.489514374594E-10 5.170000000000E+02 2.347000000000E+03
     3.120000000000E+00 3.900000000000E+02-5.122274160385E-09-3.259629011154E-09
     2.805350000000E+05
S23 2025 01 01 05 55 44 0.000000000000E+00 0.000000000000E+00 2.805560000000E+05
     3.866796400000E+04 0.000000000000E+00 0.000000000000E+00 6.300000000000E+01
     1.681330800000E+04 0.000000000000E+00 0.000000000000E+00 3.276700000000E+04
     0.000000000000E+00 0.000000000000E+00 0.000000000000E+00 1.560000000000E+02
E16 2025 01 01 05 40 00-1.276214607060E-05-2.088995643135E-12 0.000000000000E+00
     8.500000000000E+01-1.565625000000E+01 3.244778015171E-09-2.313172489148E+00
    -6.761401891708E-07 2.367716515437E-04 6.759539246559E-06 5.440606275558E+03
     2.796000000000E+05 4.842877388000E-08 2.409632680085E+00 1.862645149231E-08
     9.661574316265E-01 1.975000000000E+02 2.252029750490E+00-5.410939673071E-09
    -5.489514374594E-10 2.580000000000E+02 2.347000000000E+03
     3.120000000000E+00 4.800000000000E+01-5.122274160385E-09 0.000000000000E+00
     2.805900000000E+05
S36 2025 01 01 05 57 04 0.000000000000E+00 0.000000000000E+00 2.806330000000E+05
     4.200368800000E+04 0.000000000000E+00 0.000000000000E+00 6.300000000000E+01
     3.674846960000E+03 0.000000000000E+00 0.000000000000E+00 3.276700000000E+04
     0.000000000000E+00 0.000000000000E+00 0.000000000000E+00 3.700000000000E+01
R11 2025 01 01 05 45 00 2.112239599228E-06-1.818989403546E-12 2.806200000000E+05
     2.326394873047E+04 1.214968681335E+00-2.793967723846E-09 0.000000000000E+00
     5.080348632812E+03 3.491191864014E-01-0.000000000000E+00 0.000000000000E+00
    -9.164220214844E+03 3.274340629578E+00 9.313225746155E-10 0.000000000000E+00
S23 2025 01 01 05 57 52 0.000000000000E+00 0.000000000000E+00 2.806830000000E+05
     3.866796400000E+04 0.000000000000E+00 0.000000000000E+00 6.300000000000E+01
     1.681330800000E+04 0.000000000000E+00 0.000000000000E+00 3.276700000000E+04
     0.000000000000E+00 0.000000000000E+00 0.000000000000E+00 1.570000000000E+02
S36 2025 01 01 05 59 44 0.000000000000E+00 0.000000000000E+00 2.807890000000E+05
     4.200368800000E+04 0.000000000000E+00 0.000000000000E+00 6.300000000000E+01
     3.674846960000E+03 0.000000000000E+00 0.000000000000E+00 3.276700000000E+04
     0.000000000000E+00 0.000000000000E+00 0.000000000000E+00 3.800000000000E+01
